GPS BIIR-2  (PRN 13)    
1 24876U 97035A   16341.11629211  .00000015  00000-0  00000+0 0  9994
2 24876  55.5990 234.7153 0038318 108.7808 251.7091  2.00561774141959
GPS BIIR-3  (PRN 11)    
1 25933U 99055A   16341.40501640 -.00000010  00000-0  00000+0 0  9996
2 25933  51.5016  86.0945 0165157  91.9236  45.6574  2.00560945125773
GPS BIIR-4  (PRN 20)    
1 26360U 00025A   16341.35783069  .00000097  00000-0  00000+0 0  9995
2 26360  53.0905 162.9344 0045392  86.1265 116.3102  2.00570385121469
GPS BIIR-5  (PRN 28)    
1 26407U 00040A   16341.47169341 -.00000038  00000-0  00000+0 0  9994
2 26407  56.6792 352.6611 0203316 268.6694 298.7328  2.00568405120143
GPS BIIR-6  (PRN 14)    
1 26605U 00071A   16341.10866112  .00000017  00000-0  00000+0 0  9994
2 26605  55.1694 232.5212 0088686 248.9729 322.9879  2.00571117117749
GPS BIIR-7  (PRN 18)    
1 26690U 01004A   16341.42228659  .00000097  00000-0  00000+0 0  9996
2 26690  53.0149 165.8854 0175254 254.3257 301.2065  2.00556180116154
GPS BIIR-8  (PRN 16)    
1 27663U 03005A   16341.24762595 -.00000039  00000-0  00000+0 0  9999
2 27663  56.7507 352.3979 0087581  20.2899 144.7526  2.00571589101506
GPS BIIR-9  (PRN 21)    
1 27704U 03010A   16341.19180005  .00000033  00000-0  00000+0 0  9998
2 27704  53.7500 106.2389 0237478 260.5820 188.1310  2.00550629100300
GPS BIIR-10 (PRN 22)    
1 28129U 03058A   16341.31325097  .00000096  00000-0  00000+0 0  9997
2 28129  52.8988 165.9035 0075092 255.0240 104.1820  2.00565192 95004
GPS BIIR-11 (PRN 19)    
1 28190U 04009A   16341.45759750 -.00000050  00000-0  00000+0 0  9995
2 28190  55.8951  53.5560 0100731  50.4701  58.1518  2.00567849 93188
GPS BIIR-12 (PRN 23)    
1 28361U 04023A   16341.30559807  .00000023  00000-0  00000+0 0  9995
2 28361  54.1479 227.8209 0112631 216.5014  57.6503  2.00574682 91263
GPS BIIR-13 (PRN 02)    
1 28474U 04045A   16341.35845147  .00000032  00000-0  00000+0 0  9994
2 28474  54.1345 105.6247 0164600 242.4145  70.8938  2.00561563 88631
GPS BIIRM-1 (PRN 17)    
1 28874U 05038A   16341.28863720 -.00000051  00000-0  00000+0 0  9992
2 28874  56.0566  50.7975 0117827 251.4078 112.2469  2.00551364 82039
GPS BIIRM-2 (PRN 31)    
1 29486U 06042A   16341.46896508 -.00000025  00000-0  00000+0 0  9999
2 29486  55.5243 289.9964 0085867 339.1015  80.3206  2.00571347 74759
GPS BIIRM-3 (PRN 12)    
1 29601U 06052A   16340.33540910 -.00000041  00000-0  00000-0 0  9996
2 29601  56.7227 351.3550 0059636  42.9514 317.5504  2.00570502 73595
GPS BIIRM-4 (PRN 15)    
1 32260U 07047A   16341.14629288  .00000027  00000-0  00000+0 0  9994
2 32260  53.2753 224.3467 0087660  29.8356 330.7439  2.00558484 67040
GPS BIIRM-5 (PRN 29)    
1 32384U 07062A   16341.36060329 -.00000051  00000-0  00000+0 0  9995
2 32384  56.1165  51.3633 0005964 328.8180 319.3685  2.00559921 65774
GPS BIIRM-6 (PRN 07)    
1 32711U 08012A   16341.55370156 -.00000026  00000-0  00000+0 0  9990
2 32711  55.2500 289.4086 0101806 211.3954 148.0028  2.00569924 63965
GPS BIIRM-8 (PRN 05)    
1 35752U 09043A   16341.28999606  .00000098  00000-0  00000+0 0  9998
2 35752  54.2342 167.3388 0047825  29.7986 165.9040  2.00566542 53549
GPS BIIF-1  (PRN 25)    
1 36585U 10022A   16341.11675185 -.00000039  00000-0  00000+0 0  9993
2 36585  56.0389 348.2765 0056051  41.4310 131.0948  2.00565055 47785
GPS BIIF-2  (PRN 01)    
1 37753U 11036A   16341.41610204  .00000040  00000-0  00000+0 0  9992
2 37753  55.3462 108.4688 0059172  30.4032  88.1359  2.00560645 39478
GPS BIIF-3  (PRN 24)    
1 38833U 12053A   16340.74252674 -.00000024  00000-0  00000-0 0  9994
2 38833  54.2795 286.5497 0050389  20.9609 339.2547  2.00558644 29740
GPS BIIF-4  (PRN 27)    
1 39166U 13023A   16341.09761414 -.00000053  00000-0  00000+0 0  9999
2 39166  55.7660  47.8819 0039337  13.9439 346.2135  2.00565761 26078
GPS BIIF-5  (PRN 30)    
1 39533U 14008A   16341.09844961 -.00000026  00000-0  00000+0 0  9990
2 39533  54.4349 291.7994 0023740 185.5587 174.4225  2.00555395 20449
GPS BIIF-6  (PRN 06)    
1 39741U 14026A   16340.88327770  .00000039  00000-0  00000-0 0  9995
2 39741  55.3345 108.0093 0006009 272.4244  87.4932  2.00575011 18735
GPS BIIF-7  (PRN 09)    
1 40105U 14045A   16341.46972373  .00000024  00000-0  00000+0 0  9995
2 40105  54.6694 227.6178 0005561 104.5817 255.5593  2.00556299 17170
GPS BIIF-8  (PRN 03)    
1 40294U 14068A   16341.33707094  .00000100  00000-0  00000+0 0  9996
2 40294  54.9786 168.1674 0002600  15.1458 344.9049  2.00575835 15391
GPS BIIF-9  (PRN 26)    
1 40534U 15013A   16340.98058336 -.00000041  00000-0  00000+0 0  9997
2 40534  55.0002 347.5733 0014146 339.3192  20.6558  2.00569894 12459
GPS BIIF-10  (PRN 08)   
1 40730U 15033A   16341.14600908 -.00000053  00000-0  00000+0 0  9997
2 40730  55.3016  47.6392 0023750 300.6110  59.2036  2.00577839 10215
GPS BIIF-11  (PRN 10)   
1 41019U 15062A   16341.19273491  .00000099  00000-0  00000+0 0  9997
2 41019  54.9901 167.9531 0020213 197.3338 162.6394  2.00562938  8036
GPS BIIF-12  (PRN 32)   
1 41328U 16007A   16341.27739321  .00000024  00000-0  00000+0 0  9996
2 41328  54.9297 227.7599 0007412 224.5653 135.4549  2.00563610  6097
